{
    "links": {
        "self": "http://www.neowsapp.com/rest/v1/neo/3553664?api_key=iIulBulltgU6a56xZRHN4H3l9WmuAYTsLGpBGhQ2"
    },
    "id": "3553664",
    "neo_reference_id": "3553664",
    "name": "(2010 XV58)",
    "designation": "2010 XV58",
    "nasa_jpl_url": "http://ssd.jpl.nasa.gov/sbdb.cgi?sstr=3553664",
    "absolute_magnitude_h": 25.3,
    "estimated_diameter": {
        "kilometers": {
            "estimated_diameter_min": 0.0231502122,
            "estimated_diameter_max": 0.0517654482
        },
        "meters": {
            "estimated_diameter_min": 23.150212221,
            "estimated_diameter_max": 51.7654482198
        },
        "miles": {
            "estimated_diameter_min": 0.0143848705,
            "estimated_diameter_max": 0.0321655483
        },
        "feet": {
            "estimated_diameter_min": 75.9521422633,
            "estimated_diameter_max": 169.8341531374
        }
    },
    "is_potentially_hazardous_asteroid": false,
    "close_approach_data": [
        {
            "close_approach_date": "2010-12-04",
            "close_approach_date_full": "2010-Dec-04 04:07",
            "epoch_date_close_approach": 1291435620000,
            "relative_velocity": {
                "kilometers_per_second": "15.0565617246",
                "kilometers_per_hour": "54203.6222084056",
                "miles_per_hour": "33680.0229216618"
            },
            "miss_distance": {
                "astronomical": "0.0473115706",
                "lunar": "18.4042009634",
                "kilometers": "7077710.188114622",
                "miles": "4397885.1782489036"
            },
            "orbiting_body": "Earth"
        }
    ],
    "orbital_data": {
        "orbit_id": "6",
        "orbit_determination_date": "2017-04-06 08:55:13",
        "first_observation_date": "2010-12-11",
        "last_observation_date": "2010-12-14",
        "data_arc_in_days": 3,
        "observations_used": 15,
        "orbit_uncertainty": "9",
        "minimum_orbit_intersection": ".0448768",
        "jupiter_tisserand_invariant": "4.878",
        "epoch_osculation": "2455543.5",
        "eccentricity": ".4086373453148096",
        "semi_major_axis": "1.299523071402013",
        "inclination": "16.68511877001725",
        "ascending_node_longitude": "258.1063281027863",
        "orbital_period": "541.0961181061692",
        "perihelion_distance": ".7684894133289464",
        "perihelion_argument": "92.52241433748604",
        "aphelion_distance": "1.830556729475079",
        "perihelion_time": "2455478.481902280186",
        "mean_anomaly": "43.25759212809658",
        "mean_motion": ".6653161757286233",
        "equinox": "J2000",
        "orbit_class": {
            "orbit_class_type": "APO",
            "orbit_class_description": "Near-Earth asteroid orbits which cross the Earth’s orbit similar to that of 1862 Apollo",
            "orbit_class_range": "a (semi-major axis) > 1.0 AU; q (perihelion) < 1.017 AU"
        }
    },
    "is_sentry_object": false
}